ONEWEB-0125             
1 47271U 20100P   25246.14078878  .00000391  00000+0  10523-2 0  9991
2 47271  87.8881  47.6839 0001978  92.0952 268.0403 13.12441953226985
ONEWEB-0126             
1 47272U 20100Q   25246.16199233 -.00000345  00000+0 -99383-3 0  9996
2 47272  87.8890  47.7001 0001672  96.0926 264.0393 13.12440283227052
ONEWEB-0127             
1 47273U 20100R   25246.20405009  .00000348  00000+0  93199-3 0  9993
2 47273  87.8883  47.7051 0001613  96.7719 263.3593 13.12443158227083
ONEWEB-0128             
1 47274U 20100S   25246.15051830  .00000074  00000+0  17122-3 0  9995
2 47274  87.8878  47.7403 0001465  88.7904 271.3392 13.12441412227099
ONEWEB-0129             
1 47275U 20100T   25246.20567396  .00000484  00000+0  13093-2 0  9998
2 47275  87.8884  47.6734 0001497 136.4608 223.6639 13.12443219227035
ONEWEB-0130             
1 47276U 20100U   25246.15700423 -.00000160  00000+0 -47892-3 0  9991
2 47276  87.8878  47.6803 0001565  92.3232 267.8076 13.12442251226999
ONEWEB-0131             
1 47277U 20100V   25246.15377075  .00000375  00000+0  10069-2 0  9996
2 47277  87.8884  47.7101 0001663  87.7685 272.3634 13.12439738227031
ONEWEB-0132             
1 47278U 20100W   25246.18296108 -.00000214  00000+0 -63083-3 0  9996
2 47278  87.8883  47.7069 0001833  87.6909 272.4430 13.12443581226935
ONEWEB-0133             
1 47279U 20100X   25246.19903954  .00000324  00000+0  86602-3 0  9994
2 47279  87.8868  47.6745 0001611  88.6609 271.4704 13.12444110227091
ONEWEB-0134             
1 47280U 20100Y   25246.16835889 -.00000435  00000+0 -12437-2 0  9993
2 47280  87.8883  47.6663 0001440  92.6748 267.4545 13.12442073227069
ONEWEB-0135             
1 47281U 20100Z   25246.13916430  .00000374  00000+0  10040-2 0  9991
2 47281  87.8883  47.7125 0001298  85.9266 274.2011 13.12441058227083
ONEWEB-0136             
1 47282U 20100AA  25246.15862180 -.00000279  00000+0 -80977-3 0  9999
2 47282  87.8883  47.6770 0001247  96.9643 263.1627 13.12441127227014
ONEWEB-0137             
1 47283U 20100AB  25246.19269472  .00000141  00000+0  35775-3 0  9991
2 47283  87.8884  47.6764 0001809  98.2975 261.8358 13.12443978226927
ONEWEB-0138             
1 47284U 20100AC  25246.17160332 -.00000478  00000+0 -13637-2 0  9992
2 47284  87.8881  47.6906 0001612  94.6245 265.5068 13.12441556227004
ONEWEB-0139             
1 47285U 20100AD  25246.21069346  .00000384  00000+0  10312-2 0  9992
2 47285  87.8875  47.6743 0001715  93.9042 266.2283 13.12442609227083
ONEWEB-0140             
1 47286U 20100AE  25246.16511549 -.00000387  00000+0 -11125-2 0  9992
2 47286  87.8881  47.6672 0001595  93.6080 266.5231 13.12441897227047
