[{"OBJECT_NAME":"ONEWEB-0125","OBJECT_ID":"2020-100P","EPOCH":"2025-09-03T03:22:44.150592","MEAN_MOTION":13.12441953,"ECCENTRICITY":0.00019782,"INCLINATION":87.8881,"RA_OF_ASC_NODE":47.6839,"ARG_OF_PERICENTER":92.0952,"MEAN_ANOMALY":268.0403,"EPHEMERIS_TYPE":0,"CLASSIFICATION_TYPE":"U","NORAD_CAT_ID":47271,"ELEMENT_SET_NO":999,"REV_AT_EPOCH":22698,"BSTAR":0.0010523213,"MEAN_MOTION_DOT":3.91e-6,"MEAN_MOTION_DDOT":0},{"OBJECT_NAME":"ONEWEB-0126","OBJECT_ID":"2020-100Q","EPOCH":"2025-09-03T03:53:16.137312","MEAN_MOTION":13.12440283,"ECCENTRICITY":0.00016727,"INCLINATION":87.889,"RA_OF_ASC_NODE":47.7001,"ARG_OF_PERICENTER":96.0926,"MEAN_ANOMALY":264.0393,"EPHEMERIS_TYPE":0,"CLASSIFICATION_TYPE":"U","NORAD_CAT_ID":47272,"ELEMENT_SET_NO":999,"REV_AT_EPOCH":22705,"BSTAR":-0.00099382775,"MEAN_MOTION_DOT":-3.45e-6,"MEAN_MOTION_DDOT":0},{"OBJECT_NAME":"ONEWEB-0127","OBJECT_ID":"2020-100R","EPOCH":"2025-09-03T04:53:49.927776","MEAN_MOTION":13.12443158,"ECCENTRICITY":0.00016136,"INCLINATION":87.8883,"RA_OF_ASC_NODE":47.7051,"ARG_OF_PERICENTER":96.7719,"MEAN_ANOMALY":263.3593,"EPHEMERIS_TYPE":0,"CLASSIFICATION_TYPE":"U","NORAD_CAT_ID":47273,"ELEMENT_SET_NO":999,"REV_AT_EPOCH":22708,"BSTAR":0.0009319852,"MEAN_MOTION_DOT":3.48e-6,"MEAN_MOTION_DDOT":0},{"OBJECT_NAME":"ONEWEB-0128","OBJECT_ID":"2020-100S","EPOCH":"2025-09-03T03:36:44.781120","MEAN_MOTION":13.12441412,"ECCENTRICITY":0.00014653,"INCLINATION":87.8878,"RA_OF_ASC_NODE":47.7403,"ARG_OF_PERICENTER":88.7904,"MEAN_ANOMALY":271.3392,"EPHEMERIS_TYPE":0,"CLASSIFICATION_TYPE":"U","NORAD_CAT_ID":47274,"ELEMENT_SET_NO":999,"REV_AT_EPOCH":22709,"BSTAR":0.00017121513,"MEAN_MOTION_DOT":7.4e-7,"MEAN_MOTION_DDOT":0},{"OBJECT_NAME":"ONEWEB-0129","OBJECT_ID":"2020-100T","EPOCH":"2025-09-03T04:56:10.230144","MEAN_MOTION":13.12443219,"ECCENTRICITY":0.00014974,"INCLINATION":87.8884,"RA_OF_ASC_NODE":47.6734,"ARG_OF_PERICENTER":136.4608,"MEAN_ANOMALY":223.6639,"EPHEMERIS_TYPE":0,"CLASSIFICATION_TYPE":"U","NORAD_CAT_ID":47275,"ELEMENT_SET_NO":999,"REV_AT_EPOCH":22703,"BSTAR":0.0013093409,"MEAN_MOTION_DOT":4.84e-6,"MEAN_MOTION_DDOT":0},{"OBJECT_NAME":"ONEWEB-0130","OBJECT_ID":"2020-100U","EPOCH":"2025-09-03T03:46:05.165472","MEAN_MOTION":13.12442251,"ECCENTRICITY":0.0001565,"INCLINATION":87.8878,"RA_OF_ASC_NODE":47.6803,"ARG_OF_PERICENTER":92.3232,"MEAN_ANOMALY":267.8076,"EPHEMERIS_TYPE":0,"CLASSIFICATION_TYPE":"U","NORAD_CAT_ID":47276,"ELEMENT_SET_NO":999,"REV_AT_EPOCH":22699,"BSTAR":-0.00047891948,"MEAN_MOTION_DOT":-1.6e-6,"MEAN_MOTION_DDOT":0},{"OBJECT_NAME":"ONEWEB-0131","OBJECT_ID":"2020-100V","EPOCH":"2025-09-03T03:41:25.792800","MEAN_MOTION":13.12439738,"ECCENTRICITY":0.00016632,"INCLINATION":87.8884,"RA_OF_ASC_NODE":47.7101,"ARG_OF_PERICENTER":87.7685,"MEAN_ANOMALY":272.3634,"EPHEMERIS_TYPE":0,"CLASSIFICATION_TYPE":"U","NORAD_CAT_ID":47277,"ELEMENT_SET_NO":999,"REV_AT_EPOCH":22703,"BSTAR":0.0010069237,"MEAN_MOTION_DOT":3.75e-6,"MEAN_MOTION_DDOT":0},{"OBJECT_NAME":"ONEWEB-0132","OBJECT_ID":"2020-100W","EPOCH":"2025-09-03T04:23:27.837312","MEAN_MOTION":13.12443581,"ECCENTRICITY":0.00018333,"INCLINATION":87.8883,"RA_OF_ASC_NODE":47.7069,"ARG_OF_PERICENTER":87.6909,"MEAN_ANOMALY":272.443,"EPHEMERIS_TYPE":0,"CLASSIFICATION_TYPE":"U","NORAD_CAT_ID":47278,"ELEMENT_SET_NO":999,"REV_AT_EPOCH":22693,"BSTAR":-0.00063083138,"MEAN_MOTION_DOT":-2.14e-6,"MEAN_MOTION_DDOT":0},{"OBJECT_NAME":"ONEWEB-0133","OBJECT_ID":"2020-100X","EPOCH":"2025-09-03T04:46:37.016256","MEAN_MOTION":13.1244411,"ECCENTRICITY":0.00016113,"INCLINATION":87.8868,"RA_OF_ASC_NODE":47.6745,"ARG_OF_PERICENTER":88.6609,"MEAN_ANOMALY":271.4704,"EPHEMERIS_TYPE":0,"CLASSIFICATION_TYPE":"U","NORAD_CAT_ID":47279,"ELEMENT_SET_NO":999,"REV_AT_EPOCH":22709,"BSTAR":0.00086601712,"MEAN_MOTION_DOT":3.24e-6,"MEAN_MOTION_DDOT":0},{"OBJECT_NAME":"ONEWEB-0134","OBJECT_ID":"2020-100Y","EPOCH":"2025-09-03T04:02:26.208096","MEAN_MOTION":13.12442073,"ECCENTRICITY":0.00014402,"INCLINATION":87.8883,"RA_OF_ASC_NODE":47.6663,"ARG_OF_PERICENTER":92.6748,"MEAN_ANOMALY":267.4545,"EPHEMERIS_TYPE":0,"CLASSIFICATION_TYPE":"U","NORAD_CAT_ID":47280,"ELEMENT_SET_NO":999,"REV_AT_EPOCH":22706,"BSTAR":-0.0012437341,"MEAN_MOTION_DOT":-4.35e-6,"MEAN_MOTION_DDOT":0},{"OBJECT_NAME":"ONEWEB-0135","OBJECT_ID":"2020-100Z","EPOCH":"2025-09-03T03:20:23.795520","MEAN_MOTION":13.12441058,"ECCENTRICITY":0.00012981,"INCLINATION":87.8883,"RA_OF_ASC_NODE":47.7125,"ARG_OF_PERICENTER":85.9266,"MEAN_ANOMALY":274.2011,"EPHEMERIS_TYPE":0,"CLASSIFICATION_TYPE":"U","NORAD_CAT_ID":47281,"ELEMENT_SET_NO":999,"REV_AT_EPOCH":22708,"BSTAR":0.0010040356,"MEAN_MOTION_DOT":3.74e-6,"MEAN_MOTION_DDOT":0},{"OBJECT_NAME":"ONEWEB-0136","OBJECT_ID":"2020-100AA","EPOCH":"2025-09-03T03:48:24.923520","MEAN_MOTION":13.12441127,"ECCENTRICITY":0.00012477,"INCLINATION":87.8883,"RA_OF_ASC_NODE":47.677,"ARG_OF_PERICENTER":96.9643,"MEAN_ANOMALY":263.1627,"EPHEMERIS_TYPE":0,"CLASSIFICATION_TYPE":"U","NORAD_CAT_ID":47282,"ELEMENT_SET_NO":999,"REV_AT_EPOCH":22701,"BSTAR":-0.00080976881,"MEAN_MOTION_DOT":-2.79e-6,"MEAN_MOTION_DDOT":0},{"OBJECT_NAME":"ONEWEB-0137","OBJECT_ID":"2020-100AB","EPOCH":"2025-09-03T04:37:28.823808","MEAN_MOTION":13.12443978,"ECCENTRICITY":0.00018091,"INCLINATION":87.8884,"RA_OF_ASC_NODE":47.6764,"ARG_OF_PERICENTER":98.2975,"MEAN_ANOMALY":261.8358,"EPHEMERIS_TYPE":0,"CLASSIFICATION_TYPE":"U","NORAD_CAT_ID":47283,"ELEMENT_SET_NO":999,"REV_AT_EPOCH":22692,"BSTAR":0.00035775372,"MEAN_MOTION_DOT":1.41e-6,"MEAN_MOTION_DDOT":0},{"OBJECT_NAME":"ONEWEB-0138","OBJECT_ID":"2020-100AC","EPOCH":"2025-09-03T04:07:06.526848","MEAN_MOTION":13.12441556,"ECCENTRICITY":0.0001612,"INCLINATION":87.8881,"RA_OF_ASC_NODE":47.6906,"ARG_OF_PERICENTER":94.6245,"MEAN_ANOMALY":265.5068,"EPHEMERIS_TYPE":0,"CLASSIFICATION_TYPE":"U","NORAD_CAT_ID":47284,"ELEMENT_SET_NO":999,"REV_AT_EPOCH":22700,"BSTAR":-0.0013636654,"MEAN_MOTION_DOT":-4.78e-6,"MEAN_MOTION_DDOT":0},{"OBJECT_NAME":"ONEWEB-0139","OBJECT_ID":"2020-100AD","EPOCH":"2025-09-03T05:03:23.914944","MEAN_MOTION":13.12442609,"ECCENTRICITY":0.00017152,"INCLINATION":87.8875,"RA_OF_ASC_NODE":47.6743,"ARG_OF_PERICENTER":93.9042,"MEAN_ANOMALY":266.2283,"EPHEMERIS_TYPE":0,"CLASSIFICATION_TYPE":"U","NORAD_CAT_ID":47285,"ELEMENT_SET_NO":999,"REV_AT_EPOCH":22708,"BSTAR":0.0010311929,"MEAN_MOTION_DOT":3.84e-6,"MEAN_MOTION_DDOT":0},{"OBJECT_NAME":"ONEWEB-0140","OBJECT_ID":"2020-100AE","EPOCH":"2025-09-03T03:57:45.978336","MEAN_MOTION":13.12441897,"ECCENTRICITY":0.00015955,"INCLINATION":87.8881,"RA_OF_ASC_NODE":47.6672,"ARG_OF_PERICENTER":93.608,"MEAN_ANOMALY":266.5231,"EPHEMERIS_TYPE":0,"CLASSIFICATION_TYPE":"U","NORAD_CAT_ID":47286,"ELEMENT_SET_NO":999,"REV_AT_EPOCH":22704,"BSTAR":-0.0011125179,"MEAN_MOTION_DOT":-3.87e-6,"MEAN_MOTION_DDOT":0}]
